Category,Business Name,Street Address,City ,State,Zip,Phone Number,Google Map Link
,,,,,,,
Casinos,Lucky Seven,1401 Blondell Ave,Bronx,NY,10461,(718) 684-3443,
Casinos,Bronx Jackpot Station,849 Soundview Ave,Bronx,NY,10473,(917) 471-9732,
Casinos,Mercedes Express,158 E 119th St,New York,NY,10035,(347) 314-9216,
Casinos,Webstakes.com,11 W 19th St,New York,NY,10011,(212) 242-8800,
Casinos,Casino Gourmet Deli Corp,11201 Rockaway BlvdSouth,Ozone Park,NY,11420,(718) 880-1771,
Casinos,1800 Casinos,8 Carriage Way,White Plains,NY,10605,(914) 946-6050,
Casinos,Learning Casinos International Inc,240 Madison Ave,New York,NY,10016,(212) 683-9250,
Casinos,Casino Managed by Anna Mele,159 Home Ave,Rutherford,NJ,7070,(201) 340-4177,
Casinos,Casino Development Group,5401 43rd St,Maspeth,NY,11378,(718) 606-8618,
Casinos,Casino Development Group,54 43rd St,Maspeth,NY,11378,(718) 606-8616,
Casinos,Casino Professionals of New York,261 W 35th St,New York,NY,10001,(212) 563-1111,
Casinos,Mcroberts Protective Agency,332 E 29th St,New York,NY,10016,(212) 532-2306,
Casinos,Casino In The-Park,299 Academy St,Jersey City,NJ,7306,(201) 333-1045,
Casinos,Casino Parties by M & M,8 August Ln,Old Westbury,NY,11568,(800) 358-9467,
Casinos,Del Casino & Buonasera Drs,347 Maple Ave,Westbury,NY,11590,(516) 333-1177,
Casinos,Casino Dealer Express,6402 8th Ave,Brooklyn,NY,11220,(718) 836-3888,
Casinos,Palm Casino's USA,366 N Broadway,Jericho,NY,11753,(516) 942-4911,
Casinos,Casino Gaming Institute Of America,600 Old Country Rd Rm 310,Garden City,NY,11530,(516) 227-1186,
Casinos,A And B Betting,1391 Utica Ave,Brooklyn,NY,11203,(781) 483-8308,
Casinos,Streak Gaming,1644 E 21st St,Brooklyn,NY,11210,(314) 330-7434,
"Casinos, Amusement Places & Arcades",Heights Casino,101 Clark St,Brooklyn,NY,11201,(718) 923-6021,
"Casinos, Amusement Places & Arcades",United Casino Network,1230 Avenue Of The Americas,New York,NY,10020,(212) 618-6370,
"Casinos, Bar & Grills, Restaurants",Harbor Casino,179 Warren St Ste A,Jersey City,NJ,7302,(201) 209-1900,
"Casinos, Buses-Charter & Rental",Doreway,2031 5th Ave,New York,NY,10035,(855) 367-3929,
"Casinos, Card Playing Rooms",Re Casino Michael,44 Amethyst Ln,Paterson,NJ,7501,(973) 881-8778,
"Casinos, Lodging",Carib-Inn Tennis Club & Casino,2830 Pitkin Ave,Brooklyn,NY,11208,(718) 235-9841,
"Casinos, Restaurants",Empire City Casino,810 Yonkers Ave,Yonkers,NY,10704,(914) 968-4200,
"Casinos, Restaurants",Resorts World Casino New York City,11000 Rockaway Blvd South,Ozone Park,NY,11420,(888) 888-8801,
"Casinos, Restaurants",Lucky 777,116 Macdougal St,New York,NY,10012,(212) 777-2422,
Race Tracks & Off Track Betting, Nassau Downs-Otb,139 Liberty Ave,Mineola,NY,11501,(516) 572-2800,
Race Tracks & Off Track Betting,Nassau Otb-Valley St,10 Sidney Pl,Valley Stream,NY,11581,(516) 341-0142,
Race Tracks & Off Track Betting,Aqueduct Race Track,11000 Rockaway Blvd South,Ozone Park,NY,11420,(718) 641-4700,
